{"fetched_at":"2026-07-24T07:06:06.293Z","source":"https://celestrak.org/NORAD/elements/gp.php?GROUP=kuiper&FORMAT=JSON","constellation":"kuiper","records":[{"OBJECT_NAME":"KUIPER-00191","OBJECT_ID":"2025-301L","EPOCH":"2026-07-23T05:12:36.116352","CLASSIFICATION_TYPE":"U","MEAN_MOTION":14.7994051,"ECCENTRICITY":0.0000482,"INCLINATION":51.8996,"RA_OF_ASC_NODE":193.8473,"ARG_OF_PERICENTER":55.6256,"MEAN_ANOMALY":304.4752,"EPHEMERIS_TYPE":0,"NORAD_CAT_ID":67143,"ELEMENT_SET_NO":999,"REV_AT_EPOCH":3372,"BSTAR":0.0002944,"MEAN_MOTION_DOT":0.00002024,"MEAN_MOTION_DDOT":0},{"OBJECT_NAME":"KUIPER-00196","OBJECT_ID":"2025-301M","EPOCH":"2026-07-23T20:29:08.803104","CLASSIFICATION_TYPE":"U","MEAN_MOTION":14.76363948,"ECCENTRICITY":0.000165,"INCLINATION":51.8968,"RA_OF_ASC_NODE":147.6251,"ARG_OF_PERICENTER":22.8827,"MEAN_ANOMALY":337.2207,"EPHEMERIS_TYPE":0,"NORAD_CAT_ID":67144,"ELEMENT_SET_NO":999,"REV_AT_EPOCH":3439,"BSTAR":0.00039249,"MEAN_MOTION_DOT":0.00002537,"MEAN_MOTION_DDOT":0},{"OBJECT_NAME":"KUIPER-00204","OBJECT_ID":"2025-301N","EPOCH":"2026-07-23T21:19:03.853920","CLASSIFICATION_TYPE":"U","MEAN_MOTION":14.79956379,"ECCENTRICITY":0.00008,"INCLINATION":51.8996,"RA_OF_ASC_NODE":163.3636,"ARG_OF_PERICENTER":40.9903,"MEAN_ANOMALY":319.1119,"EPHEMERIS_TYPE":0,"NORAD_CAT_ID":67145,"ELEMENT_SET_NO":999,"REV_AT_EPOCH":3429,"BSTAR":0.00043936,"MEAN_MOTION_DOT":0.00003132,"MEAN_MOTION_DDOT":0},{"OBJECT_NAME":"KUIPER-00210","OBJECT_ID":"2025-301P","EPOCH":"2026-07-23T09:15:37.217088","CLASSIFICATION_TYPE":"U","MEAN_MOTION":14.79953281,"ECCENTRICITY":0.0000537,"INCLINATION":51.898,"RA_OF_ASC_NODE":193.0517,"ARG_OF_PERICENTER":47.0451,"MEAN_ANOMALY":313.0556,"EPHEMERIS_TYPE":0,"NORAD_CAT_ID":67146,"ELEMENT_SET_NO":999,"REV_AT_EPOCH":3389,"BSTAR":0.00031206,"MEAN_MOTION_DOT":0.0000216,"MEAN_MOTION_DDOT":0},{"OBJECT_NAME":"KUIPER-00221","OBJECT_ID":"2025-301Q","EPOCH":"2026-07-23T09:52:38.343360","CLASSIFICATION_TYPE":"U","MEAN_MOTION":14.79945587,"ECCENTRICITY":0.0000507,"INCLINATION":51.8996,"RA_OF_ASC_NODE":200.4649,"ARG_OF_PERICENTER":52.1452,"MEAN_ANOMALY":307.9556,"EPHEMERIS_TYPE":0,"NORAD_CAT_ID":67147,"ELEMENT_SET_NO":999,"REV_AT_EPOCH":3362,"BSTAR":0.00027907,"MEAN_MOTION_DOT":0.00001908,"MEAN_MOTION_DDOT":0},{"OBJECT_NAME":"KUIPER-00232","OBJECT_ID":"2025-301R","EPOCH":"2026-07-23T07:50:06.868032","CLASSIFICATION_TYPE":"U","MEAN_MOTION":14.79941933,"ECCENTRICITY":0.0000471,"INCLINATION":51.8981,"RA_OF_ASC_NODE":185.8623,"ARG_OF_PERICENTER":59.6455,"MEAN_ANOMALY":300.4554,"EPHEMERIS_TYPE":0,"NORAD_CAT_ID":67148,"ELEMENT_SET_NO":999,"REV_AT_EPOCH":3381,"BSTAR":0.00036389,"MEAN_MOTION_DOT":0.00002555,"MEAN_MOTION_DDOT":0},{"OBJECT_NAME":"KUIPER-00241","OBJECT_ID":"2025-301S","EPOCH":"2026-07-23T08:23:13.409664","CLASSIFICATION_TYPE":"U","MEAN_MOTION":14.79935328,"ECCENTRICITY":0.0000533,"INCLINATION":51.9013,"RA_OF_ASC_NODE":195.764,"ARG_OF_PERICENTER":58.5502,"MEAN_ANOMALY":301.5513,"EPHEMERIS_TYPE":0,"NORAD_CAT_ID":67149,"ELEMENT_SET_NO":999,"REV_AT_EPOCH":3401,"BSTAR":0.00030522,"MEAN_MOTION_DOT":0.00002107,"MEAN_MOTION_DDOT":0},{"OBJECT_NAME":"KUIPER-00245","OBJECT_ID":"2025-301T","EPOCH":"2026-07-23T06:34:18.537024","CLASSIFICATION_TYPE":"U","MEAN_MOTION":14.79941763,"ECCENTRICITY":0.000034,"INCLINATION":51.9018,"RA_OF_ASC_NODE":203.6081,"ARG_OF_PERICENTER":53.095,"MEAN_ANOMALY":307.0044,"EPHEMERIS_TYPE":0,"NORAD_CAT_ID":67150,"ELEMENT_SET_NO":999,"REV_AT_EPOCH":3356,"BSTAR":0.00028071,"MEAN_MOTION_DOT":0.0000192,"MEAN_MOTION_DDOT":0},{"OBJECT_NAME":"KUIPER-00246","OBJECT_ID":"2025-301U","EPOCH":"2026-07-23T07:46:09.196320","CLASSIFICATION_TYPE":"U","MEAN_MOTION":14.79952777,"ECCENTRICITY":0.0000531,"INCLINATION":51.8989,"RA_OF_ASC_NODE":188.3375,"ARG_OF_PERICENTER":59.1364,"MEAN_ANOMALY":300.9651,"EPHEMERIS_TYPE":0,"NORAD_CAT_ID":67151,"ELEMENT_SET_NO":999,"REV_AT_EPOCH":3380,"BSTAR":0.00034092,"MEAN_MOTION_DOT":0.0000238,"MEAN_MOTION_DDOT":0},{"OBJECT_NAME":"KUIPER-00247","OBJECT_ID":"2025-301V","EPOCH":"2026-07-23T08:01:44.713056","CLASSIFICATION_TYPE":"U","MEAN_MOTION":14.79948651,"ECCENTRICITY":0.0000699,"INCLINATION":51.8949,"RA_OF_ASC_NODE":178.2581,"ARG_OF_PERICENTER":64.4895,"MEAN_ANOMALY":295.614,"EPHEMERIS_TYPE":0,"NORAD_CAT_ID":67152,"ELEMENT_SET_NO":999,"REV_AT_EPOCH":3392,"BSTAR":0.00037565,"MEAN_MOTION_DOT":0.00002645,"MEAN_MOTION_DDOT":0},{"OBJECT_NAME":"KUIPER-00248","OBJECT_ID":"2025-301W","EPOCH":"2026-07-23T21:26:46.324608","CLASSIFICATION_TYPE":"U","MEAN_MOTION":14.79912031,"ECCENTRICITY":0.0000985,"INCLINATION":51.8966,"RA_OF_ASC_NODE":158.4164,"ARG_OF_PERICENTER":79.673,"MEAN_ANOMALY":280.4343,"EPHEMERIS_TYPE":0,"NORAD_CAT_ID":67153,"ELEMENT_SET_NO":999,"REV_AT_EPOCH":3441,"BSTAR":-0.000020026,"MEAN_MOTION_DOT":-0.00000374,"MEAN_MOTION_DDOT":0},{"OBJECT_NAME":"KUIPER-00249","OBJECT_ID":"2025-301X","EPOCH":"2026-07-23T08:05:35.179872","CLASSIFICATION_TYPE":"U","MEAN_MOTION":14.79926428,"ECCENTRICITY":0.0000658,"INCLINATION":51.8978,"RA_OF_ASC_NODE":175.8071,"ARG_OF_PERICENTER":67.5337,"MEAN_ANOMALY":292.5695,"EPHEMERIS_TYPE":0,"NORAD_CAT_ID":67154,"ELEMENT_SET_NO":999,"REV_AT_EPOCH":3395,"BSTAR":-0.00011804,"MEAN_MOTION_DOT":-0.00001121,"MEAN_MOTION_DDOT":0},{"OBJECT_NAME":"KUIPER-00250","OBJECT_ID":"2025-301Y","EPOCH":"2026-07-23T03:39:14.379264","CLASSIFICATION_TYPE":"U","MEAN_MOTION":14.79940486,"ECCENTRICITY":0.0000517,"INCLINATION":51.8972,"RA_OF_ASC_NODE":191.5792,"ARG_OF_PERICENTER":61.6729,"MEAN_ANOMALY":298.4285,"EPHEMERIS_TYPE":0,"NORAD_CAT_ID":67155,"ELEMENT_SET_NO":999,"REV_AT_EPOCH":3375,"BSTAR":0.0002896,"MEAN_MOTION_DOT":0.00001988,"MEAN_MOTION_DDOT":0},{"OBJECT_NAME":"KUIPER-00251","OBJECT_ID":"2025-301Z","EPOCH":"2026-07-23T07:13:09.338592","CLASSIFICATION_TYPE":"U","MEAN_MOTION":14.79947854,"ECCENTRICITY":0.0000834,"INCLINATION":51.8986,"RA_OF_ASC_NODE":178.4916,"ARG_OF_PERICENTER":44.7287,"MEAN_ANOMALY":315.3743,"EPHEMERIS_TYPE":0,"NORAD_CAT_ID":67156,"ELEMENT_SET_NO":999,"REV_AT_EPOCH":3410,"BSTAR":0.00036449,"MEAN_MOTION_DOT":0.00002559,"MEAN_MOTION_DDOT":0},{"OBJECT_NAME":"KUIPER-00252","OBJECT_ID":"2025-301AA","EPOCH":"2026-07-23T07:09:15.202368","CLASSIFICATION_TYPE":"U","MEAN_MOTION":14.79948763,"ECCENTRICITY":0.0000572,"INCLINATION":51.8991,"RA_OF_ASC_NODE":180.954,"ARG_OF_PERICENTER":61.0786,"MEAN_ANOMALY":299.0234,"EPHEMERIS_TYPE":0,"NORAD_CAT_ID":67157,"ELEMENT_SET_NO":999,"REV_AT_EPOCH":3388,"BSTAR":0.00035226,"MEAN_MOTION_DOT":0.00002466,"MEAN_MOTION_DDOT":0},{"OBJECT_NAME":"KUIPER-00261","OBJECT_ID":"2025-301AB","EPOCH":"2026-07-23T04:27:52.433856","CLASSIFICATION_TYPE":"U","MEAN_MOTION":14.79935977,"ECCENTRICITY":0.0000512,"INCLINATION":51.9005,"RA_OF_ASC_NODE":191.5051,"ARG_OF_PERICENTER":56.1677,"MEAN_ANOMALY":303.9334,"EPHEMERIS_TYPE":0,"NORAD_CAT_ID":67158,"ELEMENT_SET_NO":999,"REV_AT_EPOCH":3372,"BSTAR":0.0003031,"MEAN_MOTION_DOT":0.0000209,"MEAN_MOTION_DDOT":0}]}
