KUIPER-00191            
1 67143U 25301L   26204.21708468  .00002024  00000+0  29440-3 0  9991
2 67143  51.8996 193.8473 0000482  55.6256 304.4752 14.79940510 33729
KUIPER-00196            
1 67144U 25301M   26204.85357411  .00002537  00000+0  39249-3 0  9997
2 67144  51.8968 147.6251 0001650  22.8827 337.2207 14.76363948 34392
KUIPER-00204            
1 67145U 25301N   26204.88823905  .00003132  00000+0  43936-3 0  9997
2 67145  51.8996 163.3636 0000800  40.9903 319.1119 14.79956379 34297
KUIPER-00210            
1 67146U 25301P   26204.38584742  .00002160  00000+0  31206-3 0  9993
2 67146  51.8980 193.0517 0000537  47.0451 313.0556 14.79953281 33894
KUIPER-00221            
1 67147U 25301Q   26204.41155490  .00001908  00000+0  27907-3 0  9994
2 67147  51.8996 200.4649 0000507  52.1452 307.9556 14.79945587 33629
KUIPER-00232            
1 67148U 25301R   26204.32646838  .00002555  00000+0  36389-3 0  9999
2 67148  51.8981 185.8623 0000471  59.6455 300.4554 14.79941933 33815
KUIPER-00241            
1 67149U 25301S   26204.34946076  .00002107  00000+0  30522-3 0  9995
2 67149  51.9013 195.7640 0000533  58.5502 301.5513 14.79935328 34013
KUIPER-00245            
1 67150U 25301T   26204.27382566  .00001920  00000+0  28071-3 0  9995
2 67150  51.9018 203.6081 0000340  53.0950 307.0044 14.79941763 33560
KUIPER-00246            
1 67151U 25301U   26204.32371755  .00002380  00000+0  34092-3 0  9991
2 67151  51.8989 188.3375 0000531  59.1364 300.9651 14.79952777 33800
KUIPER-00247            
1 67152U 25301V   26204.33454529  .00002645  00000+0  37565-3 0  9996
2 67152  51.8949 178.2581 0000699  64.4895 295.6140 14.79948651 33929
KUIPER-00248            
1 67153U 25301W   26204.89359172 -.00000374  00000+0 -20026-4 0  9990
2 67153  51.8966 158.4164 0000985  79.6730 280.4343 14.79912031 34415
KUIPER-00249            
1 67154U 25301X   26204.33721273 -.00001121  00000+0 -11804-3 0  9999
2 67154  51.8978 175.8071 0000658  67.5337 292.5695 14.79926428 33952
KUIPER-00250            
1 67155U 25301Y   26204.15224976  .00001988  00000+0  28960-3 0  9998
2 67155  51.8972 191.5792 0000517  61.6729 298.4285 14.79940486 33754
KUIPER-00251            
1 67156U 25301Z   26204.30080253  .00002559  00000+0  36449-3 0  9990
2 67156  51.8986 178.4916 0000834  44.7287 315.3743 14.79947854 34109
KUIPER-00252            
1 67157U 25301AA  26204.29809262  .00002466  00000+0  35226-3 0  9997
2 67157  51.8991 180.9540 0000572  61.0786 299.0234 14.79948763 33889
KUIPER-00261            
1 67158U 25301AB  26204.18602354  .00002090  00000+0  30310-3 0  9991
2 67158  51.9005 191.5051 0000512  56.1677 303.9334 14.79935977 33722
